OPTUS D3                
1 35756U 09044B   26065.40808597 -.00000151  00000+0  00000+0 0  9999
2 35756   0.8817 269.5562 0003125  72.1506 125.4328  1.00272589 60532
NIMIQ 5                 
1 35873U 09050A   26065.78098332 -.00000260  00000+0  00000+0 0  9996
2 35873   0.0469 268.4835 0002651  82.8008  21.6529  1.00272480 60312
AMAZONAS 2              
1 35942U 09054A   26065.49819644 -.00000287  00000+0  00000+0 0  9991
2 35942   1.5485  84.4405 0003457 264.2831 294.0462  1.00272151 60156
COMSATBW-1              
1 35943U 09054B   26065.80802343  .00000022  00000+0  00000+0 0  9991
2 35943   0.0278  96.2575 0003480 264.3498 157.8091  1.00270123 60281
NSS-12                  
1 36032U 09058A   26065.34558611  .00000067  00000+0  00000+0 0  9999
2 36032   0.0029 267.1484 0004908  63.9853  14.3354  1.00273352 59887
THOR 6                  
1 36033U 09058B   26065.58130243 -.00000014  00000+0  00000+0 0  9996
2 36033   0.0252 235.2474 0002016 134.2146   3.2578  1.00272749 59970
INTELSAT 14 (IS-14)     
1 36097U 09064A   26065.78661667 -.00000277  00000+0  00000+0 0  9995
2 36097   0.0272  91.3809 0002475 253.5274  57.7792  1.00272602 59577
ATLAS 5 CENTAUR R/B     
1 36098U 09064B   26065.39514931 -.00000102  00000+0  00000+0 0  9991
2 36098  21.9372  81.0445 5635988 213.4588 100.5343  1.76308405104880
EUTELSAT 36B            
1 36101U 09065A   26065.80551007  .00000109  00000+0  00000+0 0  9994
2 36101   0.2328  77.7421 0005866 272.1010 155.1303  1.00272997 59687
INTELSAT 15 (IS-15)     
1 36106U 09067A   26065.81235677  .00000000  00000+0  00000+0 0  9994
2 36106   0.0181 163.0292 0002374 198.1544 180.9506  1.00270306 40203
BLOCK DM-SL R/B         
1 36107U 09067B   26065.17125436 -.00000095  00000+0  00000+0 0  9990
2 36107  12.7553 314.6072 4428771 141.7459  12.2593  1.73593950103131
WGS F3 (USA 211)        
1 36108U 09068A   26065.76451657  .00000098  00000+0  00000+0 0  9996
2 36108   0.3598  86.2719 0002341 314.8467 242.0709  1.00963646 45560
DELTA 4 R/B             
1 36109U 09068B   26064.78377617 -.00000183  00000+0  95686-3 0  9995
2 36109  24.7265 314.4878 8168454 167.2669 351.3653  1.19262209 70460
DIRECTV 12              
1 36131U 09075A   26065.56119566 -.00000108  00000+0  00000+0 0  9991
2 36131   0.0028  95.7619 0000364 280.3135 247.5154  1.00272318 45526
BEIDOU-2 G1             
1 36287U 10001A   26065.82490331 -.00000282  00000+0  00000+0 0  9998
2 36287   4.0536  60.6833 0004803 281.0045 260.2775  1.00270467 59142
BREEZE-M R/B            
1 36359U 10002B   26065.78861001 -.00000122  00000+0  00000+0 0  9993
2 36359  10.7240  37.3685 0212688 252.5126 121.7079  1.04040150 61160
SDO                     
1 36395U 10005A   26065.56154234 -.00000066  00000+0  00000+0 0  9992
2 36395  34.4350  87.8954 0000235  54.9241 121.7196  1.00275573 59037
